NORAD_CAT_ID,OBJECT_NAME,OBJECT_TYPE,EPOCH,MEAN_MOTION,ECCENTRICITY,INCLINATION,RA_OF_ASC_NODE,ARG_OF_PERICENTER,MEAN_ANOMALY,BSTAR,MEAN_MOTION_DOT,MEAN_MOTION_DDOT,TLE_LINE0,TLE_LINE1,TLE_LINE2,SEMIMAJOR_AXIS,PERIOD,APOGEE,PERIGEE,DECAYED
49415.0,STARLINK-3159,PAYLOAD,2024-03-15 20:00:56,15.08845503,0.000168,53.2164,228.6338,85.3844,274.734,7.607e-05,9.23e-06,0.0,0 STARLINK-3159,1 49415U 21104H   24075.83398215  .00000923  00000-0  76070-4 0  9996,2 49415  53.2164 228.6338 0001680  85.3844 274.7340 15.08845503130577,6917.864,95.437,540.891,538.566,0.0
49415.0,STARLINK-3159,PAYLOAD,2024-03-16 10:19:24,15.08839554,0.0001679,53.2153,225.9566,87.4101,272.7083,7.5462e-06,-1.68e-06,0.0,0 STARLINK-3159,1 49415U 21104H   24076.43014454 -.00000168  00000-0  75462-5 0  9990,2 49415  53.2153 225.9566 0001679  87.4101 272.7083 15.08839554130666,6917.882,95.438,540.908,538.585,0.0
49415.0,STARLINK-3159,PAYLOAD,2024-03-16 13:30:10,15.08840922,0.0001641,53.2149,225.3611,89.0708,271.0472,3.1151e-05,2.08e-06,0.0,0 STARLINK-3159,1 49415U 21104H   24076.56262356  .00000208  00000-0  31151-4 0  9990,2 49415  53.2149 225.3611 0001641  89.0708 271.0472 15.08840922129591,6917.878,95.437,540.878,538.607,0.0
49415.0,STARLINK-3159,PAYLOAD,2024-03-16 19:51:42,15.088445,0.0001121,53.2166,224.1678,103.737,256.3747,0.00010726,1.42e-05,0.0,0 STARLINK-3159,1 49415U 21104H   24076.82757925  .00001420  00000-0  10726-3 0  9991,2 49415  53.2166 224.1678 0001121 103.7370 256.3747 15.08844500129634,6917.867,95.437,540.507,538.956,0.0
49415.0,STARLINK-3159,PAYLOAD,2024-03-17 08:34:49,15.08825884,0.0001518,53.2165,221.7971,56.0003,304.1133,5.2986e-05,5.55e-06,0.0,0 STARLINK-3159,1 49415U 21104H   24077.35751365  .00000555  00000-0  52986-4 0  9995,2 49415  53.2165 221.7971 0001518  56.0003 304.1133 15.08825884130801,6917.924,95.438,540.839,538.738,0.0
49415.0,STARLINK-3159,PAYLOAD,2024-03-17 14:56:21,15.08828384,0.000139,53.2164,220.6089,61.0092,299.104,7.1828e-05,8.55e-06,0.0,0 STARLINK-3159,1 49415U 21104H   24077.62247272  .00000855  00000-0  71828-4 0  9991,2 49415  53.2164 220.6089 0001390  61.0092 299.1040 15.08828384129750,6917.916,95.438,540.742,538.819,0.0
49415.0,STARLINK-3159,PAYLOAD,2024-03-17 16:31:43,15.08840663,0.0001436,53.2167,220.3086,87.8376,272.2781,0.0001454,2.027e-05,0.0,0 STARLINK-3159,1 49415U 21104H   24077.68870358  .00002027  00000-0  14540-3 0  9994,2 49415  53.2167 220.3086 0001436  87.8376 272.2781 15.08840663130850,6917.878,95.438,540.737,538.75,0.0
49415.0,STARLINK-3159,PAYLOAD,2024-03-18 17:57:54,15.08841592,0.0001361,53.2172,215.5495,87.4039,272.7109,7.7768e-05,9.5e-06,0.0,0 STARLINK-3159,1 49415U 21104H   24078.74854611  .00000950  00000-0  77768-4 0  9991,2 49415  53.2172 215.5495 0001361  87.4039 272.7109 15.08841592131015,6917.876,95.437,540.682,538.799,0.0
49415.0,STARLINK-3159,PAYLOAD,2024-03-19 08:16:24,15.08803174,0.0002037,53.2168,212.8736,81.9176,278.2048,0.00068028,0.00010544,0.0,0 STARLINK-3159,1 49415U 21104H   24079.34472818  .00010544  00000-0  68028-3 0  9991,2 49415  53.2168 212.8736 0002037  81.9176 278.2048 15.08803174130016,6917.993,95.44,541.267,538.449,0.0
49415.0,STARLINK-3159,PAYLOAD,2024-03-20 12:53:19,15.08833971,0.0001524,53.2153,207.5227,88.1975,271.9192,7.1843e-05,8.55e-06,0.0,0 STARLINK-3159,1 49415U 21104H   24080.53703662  .00000855  00000-0  71843-4 0  9992,2 49415  53.2153 207.5227 0001524  88.1975 271.9192 15.08833971130199,6917.899,95.438,540.818,538.71,0.0
49415.0,STARLINK-3159,PAYLOAD,2024-03-20 16:04:06,15.0883317,0.0001678,53.2168,206.9277,73.8728,286.2448,5.1983e-05,5.39e-06,0.0,0 STARLINK-3159,1 49415U 21104H   24080.66951569  .00000539  00000-0  51983-4 0  9999,2 49415  53.2168 206.9277 0001678  73.8728 286.2448 15.08833170131308,6917.901,95.438,540.927,538.605,0.0
49415.0,STARLINK-3159,PAYLOAD,2024-03-21 14:19:30,15.08839297,0.0001506,53.2166,202.7662,93.4906,266.6259,0.0001049,1.382e-05,0.0,0 STARLINK-3159,1 49415U 21104H   24081.59687511  .00001382  00000-0  10490-3 0  9999,2 49415  53.2166 202.7662 0001506  93.4906 266.6259 15.08839297130356,6917.883,95.438,540.789,538.706,0.0
49415.0,STARLINK-3159,PAYLOAD,2024-03-22 12:34:53,15.08866172,0.0001455,53.2174,198.6043,92.5865,267.5294,0.00068499,0.00010638,0.0,0 STARLINK-3159,1 49415U 21104H   24082.52422699  .00010638  00000-0  68499-3 0  9993,2 49415  53.2174 198.6043 0001455  92.5865 267.5294 15.08866172131585,6917.8,95.436,540.672,538.659,0.0
49415.0,STARLINK-3159,PAYLOAD,2024-03-22 14:10:16,15.08871709,0.0001785,53.2166,198.305,99.2503,260.8691,0.00078796,0.00012285,0.0,0 STARLINK-3159,1 49415U 21104H   24082.59046512  .00012285  00000-0  78796-3 0  9997,2 49415  53.2166 198.3050 0001785  99.2503 260.8691 15.08871709130500,6917.783,95.436,540.883,538.414,0.0
49415.0,STARLINK-3159,PAYLOAD,2024-03-23 12:25:40,15.08852466,0.0001558,53.2175,194.1416,71.5615,288.5546,0.00018226,2.615e-05,0.0,0 STARLINK-3159,1 49415U 21104H   24083.51782451  .00002615  00000-0  18226-3 0  9997,2 49415  53.2175 194.1416 0001558  71.5615 288.5546 15.08852466131736,6917.842,95.437,540.785,538.629,0.0
49415.0,STARLINK-3159,PAYLOAD,2024-03-23 14:01:03,15.08853186,0.0001558,53.2174,193.844,78.7116,281.4051,0.00019404,2.803e-05,0.0,0 STARLINK-3159,1 49415U 21104H   24083.58406347  .00002803  00000-0  19404-3 0  9999,2 49415  53.2174 193.8440 0001558  78.7116 281.4051 15.08853186130656,6917.84,95.437,540.783,538.627,0.0
49415.0,STARLINK-3159,PAYLOAD,2024-03-24 12:16:26,15.0885009,0.0001753,53.2189,189.6823,96.6804,263.4388,8.3808e-05,1.046e-05,0.0,0 STARLINK-3159,1 49415U 21104H   24084.51142240  .00001046  00000-0  83808-4 0  9990,2 49415  53.2189 189.6823 0001753  96.6804 263.4388 15.08850090131880,6917.85,95.437,540.927,538.502,0.0
49415.0,STARLINK-3159,PAYLOAD,2024-03-24 13:51:49,15.08853469,0.0001841,53.2178,189.3827,104.4924,255.6273,0.00017327,2.472e-05,0.0,0 STARLINK-3159,1 49415U 21104H   24084.57765860  .00002472  00000-0  17327-3 0  9991,2 49415  53.2178 189.3827 0001841 104.4924 255.6273 15.08853469130808,6917.839,95.437,540.978,538.431,0.0
49415.0,STARLINK-3159,PAYLOAD,2024-03-25 13:42:37,15.08840832,0.0001553,53.2178,184.9246,99.1104,261.0064,0.00021789,3.182e-05,0.0,0 STARLINK-3159,1 49415U 21104H   24085.57127098  .00003182  00000-0  21789-3 0  9993,2 49415  53.2178 184.9246 0001553  99.1104 261.0064 15.08840832132041,6917.878,95.438,540.817,538.668,0.0
49415.0,STARLINK-3159,PAYLOAD,2024-03-26 13:33:25,15.08832769,0.0001355,53.2166,180.4609,87.1803,272.9344,7.0706e-06,-1.75e-06,0.0,0 STARLINK-3159,1 49415U 21104H   24086.56487557 -.00000175  00000-0  70706-5 0  9997,2 49415  53.2166 180.4609 0001355  87.1803 272.9344 15.08832769132193,6917.902,95.438,540.705,538.83,0.0
49415.0,STARLINK-3159,PAYLOAD,2024-03-27 13:24:12,15.0884117,0.0001383,53.216,176.0021,91.3564,268.7587,0.00019974,2.892e-05,0.0,0 STARLINK-3159,1 49415U 21104H   24087.55847621  .00002892  00000-0  19974-3 0  9994,2 49415  53.2160 176.0021 0001383  91.3564 268.7587 15.08841170131252,6917.877,95.437,540.699,538.785,0.0
49415.0,STARLINK-3159,PAYLOAD,2024-03-28 05:18:04,15.08835383,0.0001602,53.2163,173.0287,82.0226,278.0948,0.00015284,2.145e-05,0.0,0 STARLINK-3159,1 49415U 21104H   24088.22088080  .00002145  00000-0  15284-3 0  9996,2 49415  53.2163 173.0287 0001602  82.0226 278.0948 15.08835383132448,6917.895,95.438,540.868,538.651,0.0
49415.0,STARLINK-3159,PAYLOAD,2024-03-28 11:39:36,15.08835957,0.0001471,53.2161,171.8413,86.2354,273.8806,0.0001793,2.566e-05,0.0,0 STARLINK-3159,1 49415U 21104H   24088.48584084  .00002566  00000-0  17930-3 0  9996,2 49415  53.2161 171.8413 0001471  86.2354 273.8806 15.08835957131391,6917.893,95.438,540.775,538.74,0.0
49415.0,STARLINK-3159,PAYLOAD,2024-03-28 22:47:18,15.08828434,0.0001542,53.2161,169.7593,92.2145,267.9024,0.00043366,6.618e-05,0.0,0 STARLINK-3159,1 49415U 21104H   24088.94952426  .00006618  00000-0  43366-3 0  9990,2 49415  53.2161 169.7593 0001542  92.2145 267.9024 15.08828434131466,6917.916,95.438,540.847,538.714,0.0
49415.0,STARLINK-3159,PAYLOAD,2024-03-29 11:30:23,15.08849767,0.0001608,53.2167,167.3783,96.7543,263.3632,1.5906e-05,-3.5e-07,0.0,0 STARLINK-3159,1 49415U 21104H   24089.47943583 -.00000035  00000-0  15906-4 0  9991,2 49415  53.2167 167.3783 0001608  96.7543 263.3632 15.08849767132638,6917.851,95.437,540.828,538.603,0.0
49415.0,STARLINK-3159,PAYLOAD,2024-03-29 22:38:05,15.08844505,0.0001615,53.2169,165.2966,102.5125,257.6048,6.2538e-05,7.08e-06,0.0,0 STARLINK-3159,1 49415U 21104H   24089.94311658  .00000708  00000-0  62538-4 0  9994,2 49415  53.2169 165.2966 0001615 102.5125 257.6048 15.08844505131619,6917.867,95.437,540.849,538.614,0.0
49415.0,STARLINK-3159,PAYLOAD,2024-03-30 04:59:38,15.08836375,0.0001636,53.2172,164.1079,93.585,266.5329,0.00012191,1.653e-05,0.0,0 STARLINK-3159,1 49415U 21104H   24090.20808102  .00001653  00000-0  12191-3 0  9999,2 49415  53.2172 164.1079 0001636  93.5850 266.5329 15.08836375132745,6917.891,95.438,540.888,538.625,0.0
49415.0,STARLINK-3159,PAYLOAD,2024-03-30 11:21:10,15.08837231,0.0001591,53.2171,162.9177,96.8052,263.3121,0.00013749,1.901e-05,0.0,0 STARLINK-3159,1 49415U 21104H   24090.47303986  .00001901  00000-0  13749-3 0  9994,2 49415  53.2171 162.9177 0001591  96.8052 263.3121 15.08837231131699,6917.889,95.438,540.854,538.653,0.0
49415.0,STARLINK-3159,PAYLOAD,2024-03-31 11:11:57,15.08841819,0.0001592,53.2162,158.4572,94.6174,265.5,9.1386e-05,1.167e-05,0.0,0 STARLINK-3159,1 49415U 21104H   24091.46663788  .00001167  00000-0  91386-4 0  9991,2 49415  53.2162 158.4572 0001592  94.6174 265.5000 15.08841819132935,6917.875,95.437,540.841,538.639,0.0
49415.0,STARLINK-3159,PAYLOAD,2024-03-31 14:22:43,15.08843716,0.0001684,53.2171,157.8625,96.9763,263.1421,6.6713e-05,7.74e-06,0.0,0 STARLINK-3159,1 49415U 21104H   24091.59911660  .00000774  00000-0  66713-4 0  9999,2 49415  53.2171 157.8625 0001684  96.9763 263.1421 15.08843716131868,6917.869,95.437,540.899,538.569,0.0
